#dP2021 12 23  0  0  0.00000000     288   u+U IGb14 FIT  GFZ                    
## 2189 345600.00000000   300.00000000 59571 0.0000000000000                    
+  123   C01C02C03C04C05C06C07C08C09C10C11C12C13C14C16C19C20                    
+        C21C22C23C24C25C26C27C28C29C30C32C33C34C35C36C37C38                    
+        C39C40C41C42C43C44C45C46C59C60E01E02E03E04E05E07E08                    
+        E09E11E12E13E14E15E18E19E21E24E25E26E27E30E31E33E36                    
+        G01G02G03G04G05G06G07G08G09G10G11G12G13G14G15G16G17                    
+        G18G19G20G21G22G23G24G25G26G27G28G29G30G31G32J02J03                    
+        J07R01R02R03R04R05R07R08R09R11R12R13R14R15R17R18R19                    
+        R20R21R22R24 00 00 00 00 00 00 00 00 00 00 00 00 00                    
++        10 10 10 10 10 10 10 10 10 10  8 10 10  8 10  7  6                    
++         5  7  6  5  6  8  6  7  6  7  7  8  7  5  8  7 10                    
++        10 10  9 10  6 10  5  6 10 10  5  8  5  6  5  6  6                    
++         5  7  6  6  6  5  7  5  5  6  5  6  5  6  5  7  5                    
++         5  6  6  7  6  5  5  5  5  7  8  8  5  8  6  5  6                    
++         6  5  6  5  8  6  5  5  6  7  7  6  5  5  6 10  7                    
++        10 10  5  6  5  8  7  7  6  6  6  9  7  7  6  6  9                    
++         7  6  8  6  0  0  0  0  0  0  0  0  0  0  0  0  0                    
%c M  cc GPS ccc cccc cccc cccc cccc ccccc ccccc ccccc ccccc                    
%c cc cc ccc ccc cccc cccc cccc cccc ccccc ccccc ccccc ccccc                    
%f  1.2500000  1.025000000  0.00000000000  0.000000000000000                    
%f  0.0000000  0.000000000  0.00000000000  0.000000000000000                    
%i    0    0    0    0      0      0      0      0         0                    
%i    0    0    0    0      0      0      0      0         0                    
/* PCV:IGS14_2178 OL/AL:FES2004  NONE     YN CLK:CoN ORB:CoN                    
/*     GeoForschungsZentrum Potsdam                                             
/*                                                                              
/*                                                                              
*  2021 12 23 23 15  0.00000000                                                 
PC01 -34331.736090  24430.672958     85.765102   -313.284434                    
PC02   4415.065387  41961.730724   1139.024942    779.031644                    
PC03 -14802.853490  39493.382809    951.880260    427.547164                    
PC04 -39610.470403  14382.852687   -152.636901   -247.422960                    
PC05  21801.098527  36088.965227   1363.466044    342.820400                    
PC06  -8437.542820  41086.694912   5212.759008    684.095696                    
PC07  -3505.367485  27887.921195 -31416.136067     86.193616                    
PC08 -17228.118809  26120.886680  28178.910798      2.126549                    
PC09  -5483.331547  42023.885727  -1537.978561   -373.799299                    
PC10   4035.009007  29835.663112 -29089.903031    138.191385                    
PC11 -14670.194529  -4877.852990 -23162.031075   -314.825633                    
PC12  -7040.565143 -22471.734544 -14942.595428   -429.262014                    
PC13 -11535.053708  27055.285761  30222.577480   -168.757414                    
PC14 -24419.695741 -10163.429242   8991.337349    488.052142                    
PC16 -11307.332024  39457.478258  10307.869061     33.728967                    
PC19  22199.180747   1937.431136 -16772.671048    918.898280                    
PC20  23056.854127  15630.024464  -1471.287133   -797.182885                    
PC21 -10104.809731 -20791.237639 -15631.426302   -951.762137                    
PC22   8444.992011 -13430.836486 -22961.971065   -964.100949                    
PC23 -18776.801430  17101.846462 -11549.876319   -963.871350                    
PC24 -18032.620750  -7726.797691  19820.853436   -949.478493                    
PC25 -26214.982001   8009.799743   5151.509843   -805.516999                    
PC26   -986.227687 -16972.774698  22123.270414    803.648405                    
PC27   1425.004864  26985.175111   6982.693806    649.965110                    
PC28 -10307.977780  23727.909378 -10451.657857     12.424455                    
PC29  15845.323010  -6996.629262  21877.058330    491.691633                    
PC30  12660.131331  14704.740963  20062.546064    489.491030                    
PC32  10167.813174  20715.925643  15699.039999   -956.774504                    
PC33 -22275.666729  -1871.780815  16711.116304   -958.441308                    
PC34 -13050.842635 -13759.320137 -20469.113052   -507.972228                    
PC35   9826.451380 -23687.657894  10961.580297     59.952270                    
PC36  26412.019813  -7090.146887  -5568.406926   -841.776851                    
PC37   -518.696837  17288.097798 -21882.316817   -920.557667                    
PC38 -24676.069751  27414.355217  20300.138187    198.817970                    
PC39 -11633.870708  37796.739930  14850.076032     34.442331                    
PC40  -8769.293941  21395.461137 -35252.226182    229.229679                    
PC41  -8834.823106  13225.144780  22974.991940   -917.681945                    
PC42 -22794.506854 -16098.500318    620.853853   -931.627180                    
PC43 -16037.795501   6230.406265 -21977.745355   -952.533799                    
PC44  -2287.297310 -26955.214788  -6786.631566    508.086666                    
PC45  18647.726996 -17130.883631  11760.267362    634.864568                    
PC46  19103.846897   6643.741464 -19245.685682    -76.494101                    
PC59 -32310.195568  27063.372369    237.430504     -0.011119                    
PC60   7322.226913  41522.117835     78.819351     -0.319816                    
PE01  -4863.278141  16102.014458 -24353.203866   -544.390552                    
PE02   4727.980314 -16125.275185  24369.146526    268.851166                    
PE03  -1368.790975 -26136.203248 -13845.218715   -509.519696                    
PE04  14851.855154  25299.748456  -3956.756636   -927.267271                    
PE05  13168.641724 -11619.886350 -23832.350771   -224.188535                    
PE07 -19847.388749  -9470.146858  19814.024836   -620.790568                    
PE08 -15137.119466 -25065.925991   4352.531884   5883.936916                    
PE09  19762.159815   9199.630510 -20025.086985   5419.697082                    
PE11  19104.488493  -1784.317519  22535.146479   4830.141688                    
PE12   6070.166843  17583.248079  23034.549640   4845.903274                    
PE13 -18795.488006   1251.025682 -22822.070325    424.965117                    
PE14   7505.277821  23565.420030   2393.989918  -1685.117710                    
PE15  -5965.625672 -17602.735458 -23024.242330    773.526497                    
PE18 -17072.685544 -22811.416362 -14373.865579  -1853.985555                    
PE19   -519.873426  25047.877478  15766.951267    459.656617                    
PE21 -23268.333084   8800.914977 -16031.770882   -707.039730                    
PE24  29051.613580   4869.915718  -3088.782121  -1296.154384                    
PE25  23459.812417  -8662.036251  15853.107949   -557.873785                    
PE26 -20351.995240  19862.047404  -8191.155282   -604.574365                    
PE27 -29256.511100  -3980.944491   1961.160682   -193.531473                    
PE30 -16822.034388 -14804.421457  19320.877311   -133.979074                    
PE31  18007.113627  14305.067138 -18633.955701   -489.770591                    
PE33 -10317.563407  26008.512040   9674.179776   -461.126504                    
PE36  20511.028431 -19248.381701   9224.249025   -308.035206                    
PG01  12205.868358 -21526.082411  -9440.005103    476.080454                    
PG02 -20174.308846  13297.112990 -10478.196849   -646.610023                    
PG03   5499.729019 -14070.968559 -21943.663406    -51.794107                    
PG04   2076.061373 -23833.276852 -11453.652339   -197.944390                    
PG05 -20595.461039   6822.680436  15258.546663    -65.431397                    
PG06 -16520.336505  -2459.747408 -20597.483460    150.838041                    
PG07  -2513.802752 -17776.174953  19790.424603    294.283421                    
PG08   9045.717347 -15663.625993  19316.642215    -49.254134                    
PG09  -7385.121514 -25480.862212   -928.603612   -359.811453                    
PG10  22082.222716  11823.408758   9398.768460   -275.891290                    
PG11 -21887.846719   9166.807908 -11921.535957     10.108720                    
PG12  -8638.185016  12888.644276 -21799.090076   -145.203624                    
PG13 -13577.775827   7852.713964  21256.914276    234.105542                    
PG14 -21282.173402 -12909.715501   9348.803873    -59.951454                    
PG15  -7367.097557  17242.570897  18286.174632    -96.920221                    
PG16  23145.852908  -1627.091899  13079.650799   -444.993603                    
PG17 -12762.758687 -19717.935166 -11926.733490    551.666348                    
PG18   2287.461763  17227.659542  20052.140867    274.180205                    
PG19 -14958.733862 -12163.257914 -18606.822300     96.150373                    
PG20 -25673.031589   2150.990657   5861.624095    517.506497                    
PG21  17245.481512 -19750.305573   1357.448541    154.475063                    
PG22  14282.974295 -11962.410245 -18679.800291   -434.341156                    
PG23  12531.206320  15212.498689  17830.390331     18.649563                    
PG24 -13678.354493  22102.158386  -4536.525532    275.922912                    
PG25   4737.305008  16161.939687 -20874.047532    260.266969                    
PG26  26310.835082   4687.430885    302.808017    167.815426                    
PG27  14182.370843  -4368.344354  21838.109340     21.778904                    
PG28 -24336.066042 -10133.789556   2534.904800    436.998808                    
PG29   2678.179388  26037.147327  -4373.503210   -457.977944                    
PG30 -11516.098874 -10798.508300  21427.280491   -501.567930                    
PG31  18614.828929    583.692394 -19226.042104   -156.495923                    
PG32  15615.373359  15651.274328 -14736.818260    -39.516792                    
PJ02 -32886.023264  15577.765088 -16744.635884     -0.473838                    
PJ03 -21263.572880  32703.414916 -11534.315637    -10.254590                    
PJ07 -25359.163130  33682.688225     21.688466      0.002856                    
PR01  19433.678897  12368.295742 -10952.089518      7.385965                    
PR02  10911.940637  -3929.152570 -22689.798677    504.239233                    
PR03  -3240.145600 -16669.506213 -18972.071671     48.661789                    
PR04 -15346.890363 -19808.942602  -4710.286612    120.247478                    
PR05 -18872.351670 -12075.806628  12172.321290     84.715837                    
PR07   3834.245303  17075.588482  18612.342998    -38.974290                    
PR08  15386.982613  19819.499693   4729.365231    -62.693617                    
PR09 -22510.929214   9451.336042  -7493.635936     30.320944                    
PR11   9604.133381   8367.674383 -22089.127794     48.436155                    
PR12  23399.927303   -577.982519 -10144.701974    289.006859                    
PR13  22980.282114  -8934.899783   6532.559457    -16.040740                    
PR14   8545.750494 -12316.558170  20644.187683     72.420084                    
PR15 -10236.094465  -8339.811328  21840.881831     99.395181                    
PR17   7071.335467 -24505.024965  -1119.614712    486.220532                    
PR18  -1679.827415 -19276.076803 -16571.658878    101.487202                    
PR19  -9083.302871  -5290.253548 -23234.439105   -171.778294                    
PR20 -12807.050353  15237.388072 -15961.679807    -61.758993                    
PR21  -6512.912600  24512.997709   2580.109466   -264.533978                    
PR22   2012.699219  18731.857473  17240.398031   -153.405151                    
PR24  12733.813171 -15941.867972  15343.865139     72.518318                    
EOF                                     
